{"fetched_at":"2026-04-27T10:18:45Z","count":15360,"tles":[{"name":"TJS-21","line1":"1 66586U 25269A   26084.90842167  .00001086  00000+0  00000+0 0  9995","line2":"2 66586  63.3110 151.4086 6825268 269.3056  18.6838  2.00654387  2506","category":"Other"}]}